{
  "type": "FeatureCollection",
  "name": "nove-hrabeci-open-land-north-candidates-v4",
  "properties": {
    "status": "north_candidates_need_visual_check",
    "generated_at_local": "2026-08-20T13:42:01.528211+02:00",
    "purpose": "Add independent north-facing grassland controls after aspect signal strengthened in disturbance-filtered sensitivity analysis.",
    "selection_rules": {
      "core_square_m": 40.0,
      "sampling_square_m": 70.0,
      "guard_square_m": 170.0,
      "minimum_core_grassland_fraction": 1.0,
      "minimum_sample_grassland_fraction": 1.0,
      "minimum_guard_grassland_fraction": 0.98,
      "minimum_ndvi_median": 0.6,
      "minimum_ndvi_p10": 0.5,
      "maximum_ndvi_p90_p10_spread": 0.18,
      "minimum_sentinel_valid_fraction": 0.98,
      "minimum_distance_from_previous_candidates_m": 260.0,
      "north_aspect_max_error_deg": 35.0,
      "minimum_aspect_coherence": 0.75,
      "candidates_target": 5
    },
    "excluded_previous_centers": 33,
    "note": "Manual satellite approval remains mandatory."
  },
  "features": [
    {
      "type": "Feature",
      "properties": {
        "selection_role": "north_facing_slope",
        "selection_score": 0.9059,
        "status": "candidate_needs_visual_check",
        "worldcover_core_grassland_fraction": 1.0,
        "worldcover_sample_grassland_fraction": 1.0,
        "worldcover_guard_grassland_fraction": 1.0,
        "sample_square_m": 70.0,
        "guard_square_m": 170.0,
        "sentinel_scene_id": "S2C_T33UVS_20260815T101047_L2A",
        "sentinel_scene_datetime": "2026-08-15T10:16:35.791000Z",
        "sentinel_ndvi_median": 0.7984,
        "sentinel_ndvi_p10": 0.7298,
        "sentinel_ndvi_p90": 0.8587,
        "sentinel_ndvi_spread_p90_p10": 0.1289,
        "sentinel_ndmi_median": 0.225,
        "sentinel_valid_fraction": 1.0,
        "elevation_m_bpv": 368.27,
        "slope_deg": 7.43,
        "dominant_aspect_deg": 17.5,
        "aspect_coherence": 0.969,
        "tpi_300m_m": -1.71,
        "tpi_900m_m": -5.69,
        "twi": 6.48,
        "wetness_score": 47.39,
        "drying_score": 39.1,
        "cold_pool_score": 59.48,
        "candidate_rank": 4,
        "display_label": "N4",
        "id": "NH-OPEN-V4-N04",
        "name": "Severní svah · varianta 4",
        "class": "open_land_north_candidate_v4",
        "screening_version": 4,
        "center_lat": 51.013436,
        "center_lon": 14.434263,
        "distance_rule": ">=260 m from every v2/v3 reviewed candidate center"
      },
      "geometry": {
        "type": "Polygon",
        "coordinates": [
          [
            [
              14.4338365,
              51.0130819
            ],
            [
              14.4348246,
              51.0131675
            ],
            [
              14.4346889,
              51.0137908
            ],
            [
              14.4337007,
              51.0137052
            ],
            [
              14.4338365,
              51.0130819
            ]
          ]
        ]
      }
    },
    {
      "type": "Feature",
      "properties": {
        "selection_role": "north_facing_slope",
        "selection_score": 0.9052,
        "status": "candidate_needs_visual_check",
        "worldcover_core_grassland_fraction": 1.0,
        "worldcover_sample_grassland_fraction": 1.0,
        "worldcover_guard_grassland_fraction": 0.993,
        "sample_square_m": 70.0,
        "guard_square_m": 170.0,
        "sentinel_scene_id": "S2C_T33UVS_20260815T101047_L2A",
        "sentinel_scene_datetime": "2026-08-15T10:16:35.791000Z",
        "sentinel_ndvi_median": 0.7688,
        "sentinel_ndvi_p10": 0.7288,
        "sentinel_ndvi_p90": 0.8076,
        "sentinel_ndvi_spread_p90_p10": 0.0788,
        "sentinel_ndmi_median": 0.2032,
        "sentinel_valid_fraction": 1.0,
        "elevation_m_bpv": 394.71,
        "slope_deg": 8.28,
        "dominant_aspect_deg": 22.5,
        "aspect_coherence": 0.994,
        "tpi_300m_m": 3.78,
        "tpi_900m_m": 13.14,
        "twi": 5.96,
        "wetness_score": 36.05,
        "drying_score": 45.6,
        "cold_pool_score": 39.87,
        "candidate_rank": 5,
        "display_label": "N5",
        "id": "NH-OPEN-V4-N05",
        "name": "Severní svah · varianta 5",
        "class": "open_land_north_candidate_v4",
        "screening_version": 4,
        "center_lat": 51.013255,
        "center_lon": 14.429557,
        "distance_rule": ">=260 m from every v2/v3 reviewed candidate center"
      },
      "geometry": {
        "type": "Polygon",
        "coordinates": [
          [
            [
              14.4291305,
              51.0129008
            ],
            [
              14.4301186,
              51.0129864
            ],
            [
              14.4299828,
              51.0136098
            ],
            [
              14.4289947,
              51.0135241
            ],
            [
              14.4291305,
              51.0129008
            ]
          ]
        ]
      }
    },
    {
      "type": "Feature",
      "properties": {
        "selection_role": "north_facing_slope",
        "selection_score": 0.8182,
        "status": "candidate_needs_visual_check",
        "worldcover_core_grassland_fraction": 1.0,
        "worldcover_sample_grassland_fraction": 1.0,
        "worldcover_guard_grassland_fraction": 0.998,
        "sample_square_m": 70.0,
        "guard_square_m": 170.0,
        "sentinel_scene_id": "S2C_T33UVS_20260815T101047_L2A",
        "sentinel_scene_datetime": "2026-08-15T10:16:35.791000Z",
        "sentinel_ndvi_median": 0.7994,
        "sentinel_ndvi_p10": 0.7658,
        "sentinel_ndvi_p90": 0.8384,
        "sentinel_ndvi_spread_p90_p10": 0.0726,
        "sentinel_ndmi_median": 0.2433,
        "sentinel_valid_fraction": 1.0,
        "elevation_m_bpv": 403.11,
        "slope_deg": 7.81,
        "dominant_aspect_deg": 31.2,
        "aspect_coherence": 0.975,
        "tpi_300m_m": 6.56,
        "tpi_900m_m": 3.37,
        "twi": 5.33,
        "wetness_score": 31.07,
        "drying_score": 52.18,
        "cold_pool_score": 42.0,
        "candidate_rank": 6,
        "display_label": "N6",
        "id": "NH-OPEN-V4-N06",
        "name": "Severní svah · varianta 6",
        "class": "open_land_north_candidate_v4",
        "screening_version": 4,
        "center_lat": 51.004026,
        "center_lon": 14.418843,
        "distance_rule": ">=260 m from every v2/v3 reviewed candidate center"
      },
      "geometry": {
        "type": "Polygon",
        "coordinates": [
          [
            [
              14.4184168,
              51.0036711
            ],
            [
              14.4194047,
              51.0037568
            ],
            [
              14.4192688,
              51.0043802
            ],
            [
              14.4182808,
              51.0042944
            ],
            [
              14.4184168,
              51.0036711
            ]
          ]
        ]
      }
    },
    {
      "type": "Feature",
      "properties": {
        "selection_role": "north_facing_slope",
        "selection_score": 0.8139,
        "status": "candidate_needs_visual_check",
        "worldcover_core_grassland_fraction": 1.0,
        "worldcover_sample_grassland_fraction": 1.0,
        "worldcover_guard_grassland_fraction": 0.98,
        "sample_square_m": 70.0,
        "guard_square_m": 170.0,
        "sentinel_scene_id": "S2C_T33UVS_20260815T101047_L2A",
        "sentinel_scene_datetime": "2026-08-15T10:16:35.791000Z",
        "sentinel_ndvi_median": 0.7792,
        "sentinel_ndvi_p10": 0.7658,
        "sentinel_ndvi_p90": 0.8075,
        "sentinel_ndvi_spread_p90_p10": 0.0417,
        "sentinel_ndmi_median": 0.2026,
        "sentinel_valid_fraction": 1.0,
        "elevation_m_bpv": 346.24,
        "slope_deg": 8.89,
        "dominant_aspect_deg": 28.2,
        "aspect_coherence": 0.994,
        "tpi_300m_m": 7.95,
        "tpi_900m_m": -1.66,
        "twi": 6.1,
        "wetness_score": 37.15,
        "drying_score": 47.13,
        "cold_pool_score": 49.05,
        "candidate_rank": 7,
        "display_label": "N7",
        "id": "NH-OPEN-V4-N07",
        "name": "Severní svah · varianta 7",
        "class": "open_land_north_candidate_v4",
        "screening_version": 4,
        "center_lat": 51.028336,
        "center_lon": 14.4618,
        "distance_rule": ">=260 m from every v2/v3 reviewed candidate center"
      },
      "geometry": {
        "type": "Polygon",
        "coordinates": [
          [
            [
              14.4613732,
              51.0279821
            ],
            [
              14.4623617,
              51.0280675
            ],
            [
              14.4622263,
              51.0286908
            ],
            [
              14.4612378,
              51.0286055
            ],
            [
              14.4613732,
              51.0279821
            ]
          ]
        ]
      }
    },
    {
      "type": "Feature",
      "properties": {
        "selection_role": "north_facing_slope",
        "selection_score": 0.7938,
        "status": "candidate_needs_visual_check",
        "worldcover_core_grassland_fraction": 1.0,
        "worldcover_sample_grassland_fraction": 1.0,
        "worldcover_guard_grassland_fraction": 1.0,
        "sample_square_m": 70.0,
        "guard_square_m": 170.0,
        "sentinel_scene_id": "S2C_T33UVS_20260815T101047_L2A",
        "sentinel_scene_datetime": "2026-08-15T10:16:35.791000Z",
        "sentinel_ndvi_median": 0.8313,
        "sentinel_ndvi_p10": 0.7653,
        "sentinel_ndvi_p90": 0.8865,
        "sentinel_ndvi_spread_p90_p10": 0.1212,
        "sentinel_ndmi_median": 0.2517,
        "sentinel_valid_fraction": 1.0,
        "elevation_m_bpv": 360.69,
        "slope_deg": 5.92,
        "dominant_aspect_deg": 22.4,
        "aspect_coherence": 0.987,
        "tpi_300m_m": 5.47,
        "tpi_900m_m": 11.42,
        "twi": 6.42,
        "wetness_score": 37.39,
        "drying_score": 44.36,
        "cold_pool_score": 46.79,
        "candidate_rank": 8,
        "display_label": "N8",
        "id": "NH-OPEN-V4-N08",
        "name": "Severní svah · varianta 8",
        "class": "open_land_north_candidate_v4",
        "screening_version": 4,
        "center_lat": 51.010474,
        "center_lon": 14.449287,
        "distance_rule": ">=260 m from every v2/v3 reviewed candidate center"
      },
      "geometry": {
        "type": "Polygon",
        "coordinates": [
          [
            [
              14.4488604,
              51.0101193
            ],
            [
              14.4498485,
              51.0102048
            ],
            [
              14.449713,
              51.0108282
            ],
            [
              14.4487249,
              51.0107427
            ],
            [
              14.4488604,
              51.0101193
            ]
          ]
        ]
      }
    }
  ]
}
