{
  "type": "FeatureCollection",
  "name": "nove-hrabeci-open-land-experimental-v3",
  "properties": {
    "status": "stable_after_v4_visual_review",
    "generated_at_local": "2026-08-20T14:15:13.813373+02:00",
    "review_versions": [
      "visual-review-v2.3",
      "visual-review-v3.1",
      "visual-review-v4.1"
    ],
    "purpose": "Stable visually reviewed matched open-land network for Sentinel/terrain response experiments.",
    "role_counts": {
      "high_position": 2,
      "north_facing_slope": 4,
      "high_twi": 2,
      "low_twi": 3,
      "low_position": 4,
      "south_facing_slope": 2
    },
    "known_gaps": [],
    "sample_count": 17,
    "note": "Network extends experimental v2 with three manually approved independent north-facing controls N4-N6; N7-N8 remain rejected."
  },
  "features": [
    {
      "type": "Feature",
      "properties": {
        "selection_role": "high_position",
        "selection_score": 0.8851,
        "status": "approved_after_second_visual_check",
        "worldcover_core_grassland_fraction": 1.0,
        "worldcover_sample_grassland_fraction": 1.0,
        "worldcover_guard_grassland_fraction": 0.944,
        "sample_square_m": 80.0,
        "guard_square_m": 140.0,
        "sentinel_scene_id": "S2C_T33UVS_20260815T101047_L2A",
        "sentinel_scene_datetime": "2026-08-15T10:16:35.791000Z",
        "sentinel_ndvi_median": 0.7737,
        "sentinel_ndvi_p10": 0.7545,
        "sentinel_ndvi_p90": 0.7886,
        "sentinel_ndvi_spread_p90_p10": 0.0341,
        "sentinel_ndmi_median": 0.2035,
        "sentinel_valid_fraction": 1.0,
        "elevation_m_bpv": 442.93,
        "slope_deg": 2.72,
        "dominant_aspect_deg": null,
        "aspect_coherence": null,
        "tpi_300m_m": 9.17,
        "tpi_900m_m": 30.16,
        "twi": 6.53,
        "wetness_score": 32.66,
        "drying_score": 41.77,
        "cold_pool_score": 32.19,
        "candidate_rank": 1,
        "id": "NH-OPEN-V2-04",
        "name": "Vyšší poloha · varianta 1",
        "class": "open_land_candidate_v2",
        "center_lat": 51.011287,
        "center_lon": 14.389146,
        "review_label": "H1",
        "review_version": "visual-review-v2.3",
        "reviewed_at_local": "2026-08-20T12:35:00+02:00",
        "experimental_use": "stable_open_land_network"
      },
      "geometry": {
        "type": "Polygon",
        "coordinates": [
          [
            [
              14.3886591,
              51.010882
            ],
            [
              14.3897882,
              51.0109803
            ],
            [
              14.3896325,
              51.0116927
            ],
            [
              14.3885033,
              51.0115944
            ],
            [
              14.3886591,
              51.010882
            ]
          ]
        ]
      }
    },
    {
      "type": "Feature",
      "properties": {
        "selection_role": "high_position",
        "selection_score": 0.8582,
        "status": "approved_after_second_visual_check",
        "worldcover_core_grassland_fraction": 1.0,
        "worldcover_sample_grassland_fraction": 1.0,
        "worldcover_guard_grassland_fraction": 0.946,
        "sample_square_m": 80.0,
        "guard_square_m": 140.0,
        "sentinel_scene_id": "S2C_T33UVS_20260815T101047_L2A",
        "sentinel_scene_datetime": "2026-08-15T10:16:35.791000Z",
        "sentinel_ndvi_median": 0.7365,
        "sentinel_ndvi_p10": 0.7055,
        "sentinel_ndvi_p90": 0.7697,
        "sentinel_ndvi_spread_p90_p10": 0.0642,
        "sentinel_ndmi_median": 0.1649,
        "sentinel_valid_fraction": 1.0,
        "elevation_m_bpv": 370.37,
        "slope_deg": 6.3,
        "dominant_aspect_deg": 102.8,
        "aspect_coherence": 0.981,
        "tpi_300m_m": 12.27,
        "tpi_900m_m": 28.32,
        "twi": 5.43,
        "wetness_score": 21.48,
        "drying_score": 53.82,
        "cold_pool_score": 31.35,
        "candidate_rank": 2,
        "id": "NH-OPEN-V2-05",
        "name": "Vyšší poloha · varianta 2",
        "class": "open_land_candidate_v2",
        "center_lat": 51.027747,
        "center_lon": 14.439776,
        "review_label": "H2",
        "review_version": "visual-review-v2.3",
        "reviewed_at_local": "2026-08-20T12:35:00+02:00",
        "experimental_use": "stable_open_land_network"
      },
      "geometry": {
        "type": "Polygon",
        "coordinates": [
          [
            [
              14.4392891,
              51.0273422
            ],
            [
              14.4404187,
              51.02744
            ],
            [
              14.4402637,
              51.0281524
            ],
            [
              14.439134,
              51.0280546
            ],
            [
              14.4392891,
              51.0273422
            ]
          ]
        ]
      }
    },
    {
      "type": "Feature",
      "properties": {
        "selection_role": "north_facing_slope",
        "selection_score": 1.0,
        "status": "approved_after_second_visual_check",
        "worldcover_core_grassland_fraction": 1.0,
        "worldcover_sample_grassland_fraction": 1.0,
        "worldcover_guard_grassland_fraction": 0.945,
        "sample_square_m": 80.0,
        "guard_square_m": 140.0,
        "sentinel_scene_id": "S2C_T33UVS_20260815T101047_L2A",
        "sentinel_scene_datetime": "2026-08-15T10:16:35.791000Z",
        "sentinel_ndvi_median": 0.7821,
        "sentinel_ndvi_p10": 0.7545,
        "sentinel_ndvi_p90": 0.8239,
        "sentinel_ndvi_spread_p90_p10": 0.0694,
        "sentinel_ndmi_median": 0.2061,
        "sentinel_valid_fraction": 1.0,
        "elevation_m_bpv": 332.87,
        "slope_deg": 12.73,
        "dominant_aspect_deg": 356.8,
        "aspect_coherence": 0.95,
        "tpi_300m_m": 1.48,
        "tpi_900m_m": -15.07,
        "twi": 4.84,
        "wetness_score": 35.59,
        "drying_score": 53.21,
        "cold_pool_score": 60.69,
        "candidate_rank": 2,
        "id": "NH-OPEN-V2-08",
        "name": "Severní svah · varianta 2",
        "class": "open_land_candidate_v2",
        "center_lat": 51.023741,
        "center_lon": 14.458483,
        "review_label": "N2",
        "review_version": "visual-review-v2.3",
        "reviewed_at_local": "2026-08-20T12:35:00+02:00",
        "experimental_use": "stable_open_land_network"
      },
      "geometry": {
        "type": "Polygon",
        "coordinates": [
          [
            [
              14.4579956,
              51.0233363
            ],
            [
              14.4591252,
              51.0234339
            ],
            [
              14.4589704,
              51.0241463
            ],
            [
              14.4578408,
              51.0240487
            ],
            [
              14.4579956,
              51.0233363
            ]
          ]
        ]
      }
    },
    {
      "type": "Feature",
      "properties": {
        "selection_role": "high_twi",
        "selection_score": 1.0,
        "status": "approved_after_second_visual_check",
        "worldcover_core_grassland_fraction": 1.0,
        "worldcover_sample_grassland_fraction": 1.0,
        "worldcover_guard_grassland_fraction": 0.996,
        "sample_square_m": 80.0,
        "guard_square_m": 140.0,
        "sentinel_scene_id": "S2C_T33UVS_20260815T101047_L2A",
        "sentinel_scene_datetime": "2026-08-15T10:16:35.791000Z",
        "sentinel_ndvi_median": 0.7407,
        "sentinel_ndvi_p10": 0.6892,
        "sentinel_ndvi_p90": 0.7696,
        "sentinel_ndvi_spread_p90_p10": 0.0804,
        "sentinel_ndmi_median": 0.1469,
        "sentinel_valid_fraction": 1.0,
        "elevation_m_bpv": 381.68,
        "slope_deg": 3.98,
        "dominant_aspect_deg": null,
        "aspect_coherence": null,
        "tpi_300m_m": -3.3,
        "tpi_900m_m": -19.88,
        "twi": 7.35,
        "wetness_score": 61.05,
        "drying_score": 32.6,
        "cold_pool_score": 74.39,
        "candidate_rank": 3,
        "id": "NH-OPEN-V2-15",
        "name": "Vysoké TWI · varianta 3",
        "class": "open_land_candidate_v2",
        "center_lat": 51.00869,
        "center_lon": 14.398917,
        "review_label": "T+3",
        "review_version": "visual-review-v2.3",
        "reviewed_at_local": "2026-08-20T12:35:00+02:00",
        "experimental_use": "stable_open_land_network"
      },
      "geometry": {
        "type": "Polygon",
        "coordinates": [
          [
            [
              14.3984301,
              51.0082848
            ],
            [
              14.3995592,
              51.008383
            ],
            [
              14.3994036,
              51.0090953
            ],
            [
              14.3982744,
              51.0089972
            ],
            [
              14.3984301,
              51.0082848
            ]
          ]
        ]
      }
    },
    {
      "type": "Feature",
      "properties": {
        "selection_role": "low_twi",
        "selection_score": 1.0,
        "status": "approved_after_second_visual_check",
        "worldcover_core_grassland_fraction": 1.0,
        "worldcover_sample_grassland_fraction": 1.0,
        "worldcover_guard_grassland_fraction": 0.998,
        "sample_square_m": 80.0,
        "guard_square_m": 140.0,
        "sentinel_scene_id": "S2C_T33UVS_20260815T101047_L2A",
        "sentinel_scene_datetime": "2026-08-15T10:16:35.791000Z",
        "sentinel_ndvi_median": 0.7036,
        "sentinel_ndvi_p10": 0.6595,
        "sentinel_ndvi_p90": 0.7748,
        "sentinel_ndvi_spread_p90_p10": 0.1153,
        "sentinel_ndmi_median": 0.1133,
        "sentinel_valid_fraction": 1.0,
        "elevation_m_bpv": 376.16,
        "slope_deg": 6.85,
        "dominant_aspect_deg": 352.0,
        "aspect_coherence": 0.855,
        "tpi_300m_m": 17.82,
        "tpi_900m_m": 11.9,
        "twi": 4.86,
        "wetness_score": 17.27,
        "drying_score": 57.69,
        "cold_pool_score": 33.99,
        "candidate_rank": 1,
        "id": "NH-OPEN-V2-16",
        "name": "Nízké TWI · varianta 1",
        "class": "open_land_candidate_v2",
        "center_lat": 51.006484,
        "center_lon": 14.483437,
        "review_label": "T-1",
        "review_version": "visual-review-v2.3",
        "reviewed_at_local": "2026-08-20T12:35:00+02:00",
        "experimental_use": "stable_open_land_network"
      },
      "geometry": {
        "type": "Polygon",
        "coordinates": [
          [
            [
              14.4829493,
              51.0060796
            ],
            [
              14.4840786,
              51.0061769
            ],
            [
              14.4839242,
              51.0068894
            ],
            [
              14.482795,
              51.006792
            ],
            [
              14.4829493,
              51.0060796
            ]
          ]
        ]
      }
    },
    {
      "type": "Feature",
      "properties": {
        "selection_role": "low_twi",
        "selection_score": 1.0,
        "status": "approved_after_second_visual_check",
        "worldcover_core_grassland_fraction": 1.0,
        "worldcover_sample_grassland_fraction": 0.993,
        "worldcover_guard_grassland_fraction": 0.964,
        "sample_square_m": 80.0,
        "guard_square_m": 140.0,
        "sentinel_scene_id": "S2C_T33UVS_20260815T101047_L2A",
        "sentinel_scene_datetime": "2026-08-15T10:16:35.791000Z",
        "sentinel_ndvi_median": 0.6453,
        "sentinel_ndvi_p10": 0.5548,
        "sentinel_ndvi_p90": 0.682,
        "sentinel_ndvi_spread_p90_p10": 0.1272,
        "sentinel_ndmi_median": 0.0376,
        "sentinel_valid_fraction": 1.0,
        "elevation_m_bpv": 400.32,
        "slope_deg": 8.22,
        "dominant_aspect_deg": 179.7,
        "aspect_coherence": 0.952,
        "tpi_300m_m": 5.08,
        "tpi_900m_m": 7.97,
        "twi": 5.08,
        "wetness_score": 29.38,
        "drying_score": 57.03,
        "cold_pool_score": 42.83,
        "candidate_rank": 2,
        "id": "NH-OPEN-V2-17",
        "name": "Nízké TWI · varianta 2",
        "class": "open_land_candidate_v2",
        "center_lat": 51.008185,
        "center_lon": 14.421818,
        "review_label": "T-2",
        "review_version": "visual-review-v2.3",
        "reviewed_at_local": "2026-08-20T12:35:00+02:00",
        "experimental_use": "stable_open_land_network"
      },
      "geometry": {
        "type": "Polygon",
        "coordinates": [
          [
            [
              14.4213313,
              51.0077794
            ],
            [
              14.4224604,
              51.0078774
            ],
            [
              14.4223052,
              51.0085897
            ],
            [
              14.421176,
              51.0084918
            ],
            [
              14.4213313,
              51.0077794
            ]
          ]
        ]
      }
    },
    {
      "type": "Feature",
      "properties": {
        "selection_role": "low_twi",
        "selection_score": 1.0,
        "status": "approved_after_second_visual_check",
        "worldcover_core_grassland_fraction": 1.0,
        "worldcover_sample_grassland_fraction": 1.0,
        "worldcover_guard_grassland_fraction": 0.962,
        "sample_square_m": 80.0,
        "guard_square_m": 140.0,
        "sentinel_scene_id": "S2C_T33UVS_20260815T101047_L2A",
        "sentinel_scene_datetime": "2026-08-15T10:16:35.791000Z",
        "sentinel_ndvi_median": 0.6918,
        "sentinel_ndvi_p10": 0.6496,
        "sentinel_ndvi_p90": 0.7292,
        "sentinel_ndvi_spread_p90_p10": 0.0796,
        "sentinel_ndmi_median": 0.1277,
        "sentinel_valid_fraction": 1.0,
        "elevation_m_bpv": 333.65,
        "slope_deg": 10.06,
        "dominant_aspect_deg": 187.1,
        "aspect_coherence": 0.974,
        "tpi_300m_m": 3.18,
        "tpi_900m_m": -10.26,
        "twi": 4.89,
        "wetness_score": 35.13,
        "drying_score": 59.01,
        "cold_pool_score": 56.57,
        "candidate_rank": 3,
        "id": "NH-OPEN-V2-18",
        "name": "Nízké TWI · varianta 3",
        "class": "open_land_candidate_v2",
        "center_lat": 51.026291,
        "center_lon": 14.458073,
        "review_label": "T-3",
        "review_version": "visual-review-v2.3",
        "reviewed_at_local": "2026-08-20T12:35:00+02:00",
        "experimental_use": "stable_open_land_network"
      },
      "geometry": {
        "type": "Polygon",
        "coordinates": [
          [
            [
              14.4575855,
              51.025886
            ],
            [
              14.4587151,
              51.0259837
            ],
            [
              14.4585603,
              51.0266961
            ],
            [
              14.4574307,
              51.0265984
            ],
            [
              14.4575855,
              51.025886
            ]
          ]
        ]
      }
    },
    {
      "type": "Feature",
      "properties": {
        "selection_role": "low_position",
        "selection_score": 0.938,
        "status": "approved_after_visual_check",
        "worldcover_core_grassland_fraction": 1.0,
        "worldcover_sample_grassland_fraction": 1.0,
        "worldcover_guard_grassland_fraction": 0.98,
        "sample_square_m": 70.0,
        "guard_square_m": 170.0,
        "sentinel_scene_id": "S2C_T33UVS_20260815T101047_L2A",
        "sentinel_scene_datetime": "2026-08-15T10:16:35.791000Z",
        "sentinel_ndvi_median": 0.7752,
        "sentinel_ndvi_p10": 0.7356,
        "sentinel_ndvi_p90": 0.814,
        "sentinel_ndvi_spread_p90_p10": 0.0784,
        "sentinel_ndmi_median": 0.1952,
        "sentinel_valid_fraction": 1.0,
        "elevation_m_bpv": 309.26,
        "slope_deg": 5.58,
        "dominant_aspect_deg": 73.3,
        "aspect_coherence": 0.917,
        "tpi_300m_m": -6.65,
        "tpi_900m_m": -22.59,
        "twi": 6.88,
        "wetness_score": 60.37,
        "drying_score": 34.25,
        "cold_pool_score": 82.48,
        "candidate_rank": 4,
        "display_label": "L4",
        "id": "NH-OPEN-V3-L04",
        "name": "Nízká poloha · varianta 4",
        "class": "open_land_target_candidate_v3",
        "screening_version": 3,
        "center_lat": 51.030822,
        "center_lon": 14.449105,
        "distance_rule": ">=260 m from every v2 candidate center",
        "review_label": "L4",
        "review_version": "visual-review-v3.1",
        "reviewed_at_local": "2026-08-20T13:00:00+02:00",
        "experimental_use": "stable_open_land_network"
      },
      "geometry": {
        "type": "Polygon",
        "coordinates": [
          [
            [
              14.4486782,
              51.0304678
            ],
            [
              14.4496667,
              51.0305533
            ],
            [
              14.4495311,
              51.0311766
            ],
            [
              14.4485426,
              51.0310911
            ],
            [
              14.4486782,
              51.0304678
            ]
          ]
        ]
      }
    },
    {
      "type": "Feature",
      "properties": {
        "selection_role": "low_position",
        "selection_score": 0.9176,
        "status": "approved_after_visual_check",
        "worldcover_core_grassland_fraction": 1.0,
        "worldcover_sample_grassland_fraction": 1.0,
        "worldcover_guard_grassland_fraction": 0.98,
        "sample_square_m": 70.0,
        "guard_square_m": 170.0,
        "sentinel_scene_id": "S2C_T33UVS_20260815T101047_L2A",
        "sentinel_scene_datetime": "2026-08-15T10:16:35.791000Z",
        "sentinel_ndvi_median": 0.7587,
        "sentinel_ndvi_p10": 0.7213,
        "sentinel_ndvi_p90": 0.7908,
        "sentinel_ndvi_spread_p90_p10": 0.0695,
        "sentinel_ndmi_median": 0.1806,
        "sentinel_valid_fraction": 1.0,
        "elevation_m_bpv": 321.43,
        "slope_deg": 5.92,
        "dominant_aspect_deg": 29.1,
        "aspect_coherence": 0.982,
        "tpi_300m_m": -4.18,
        "tpi_900m_m": -22.36,
        "twi": 8.12,
        "wetness_score": 67.58,
        "drying_score": 26.71,
        "cold_pool_score": 79.08,
        "candidate_rank": 5,
        "display_label": "L5",
        "id": "NH-OPEN-V3-L05",
        "name": "Nízká poloha · varianta 5",
        "class": "open_land_target_candidate_v3",
        "screening_version": 3,
        "center_lat": 51.024062,
        "center_lon": 14.452229,
        "distance_rule": ">=260 m from every v2 candidate center",
        "review_label": "L5",
        "review_version": "visual-review-v3.1",
        "reviewed_at_local": "2026-08-20T13:00:00+02:00",
        "experimental_use": "stable_open_land_network"
      },
      "geometry": {
        "type": "Polygon",
        "coordinates": [
          [
            [
              14.4518022,
              51.023708
            ],
            [
              14.4527906,
              51.0237935
            ],
            [
              14.4526551,
              51.0244168
            ],
            [
              14.4516667,
              51.0243314
            ],
            [
              14.4518022,
              51.023708
            ]
          ]
        ]
      }
    },
    {
      "type": "Feature",
      "properties": {
        "selection_role": "low_position",
        "selection_score": 0.8869,
        "status": "approved_after_visual_check",
        "worldcover_core_grassland_fraction": 1.0,
        "worldcover_sample_grassland_fraction": 1.0,
        "worldcover_guard_grassland_fraction": 0.98,
        "sample_square_m": 70.0,
        "guard_square_m": 170.0,
        "sentinel_scene_id": "S2C_T33UVS_20260815T101047_L2A",
        "sentinel_scene_datetime": "2026-08-15T10:16:35.791000Z",
        "sentinel_ndvi_median": 0.7215,
        "sentinel_ndvi_p10": 0.6822,
        "sentinel_ndvi_p90": 0.737,
        "sentinel_ndvi_spread_p90_p10": 0.0548,
        "sentinel_ndmi_median": 0.1475,
        "sentinel_valid_fraction": 1.0,
        "elevation_m_bpv": 314.03,
        "slope_deg": 5.59,
        "dominant_aspect_deg": 224.3,
        "aspect_coherence": 0.996,
        "tpi_300m_m": -7.23,
        "tpi_900m_m": -18.86,
        "twi": 7.84,
        "wetness_score": 67.38,
        "drying_score": 29.62,
        "cold_pool_score": 81.68,
        "candidate_rank": 6,
        "display_label": "L6",
        "id": "NH-OPEN-V3-L06",
        "name": "Nízká poloha · varianta 6",
        "class": "open_land_target_candidate_v3",
        "screening_version": 3,
        "center_lat": 51.032278,
        "center_lon": 14.454398,
        "distance_rule": ">=260 m from every v2 candidate center",
        "review_label": "L6",
        "review_version": "visual-review-v3.1",
        "reviewed_at_local": "2026-08-20T13:00:00+02:00",
        "experimental_use": "stable_open_land_network"
      },
      "geometry": {
        "type": "Polygon",
        "coordinates": [
          [
            [
              14.4539719,
              51.0319233
            ],
            [
              14.4549604,
              51.0320087
            ],
            [
              14.4548249,
              51.0326321
            ],
            [
              14.4538363,
              51.0325466
            ],
            [
              14.4539719,
              51.0319233
            ]
          ]
        ]
      }
    },
    {
      "type": "Feature",
      "properties": {
        "selection_role": "low_position",
        "selection_score": 0.8796,
        "status": "approved_after_visual_check",
        "worldcover_core_grassland_fraction": 1.0,
        "worldcover_sample_grassland_fraction": 1.0,
        "worldcover_guard_grassland_fraction": 0.986,
        "sample_square_m": 70.0,
        "guard_square_m": 170.0,
        "sentinel_scene_id": "S2C_T33UVS_20260815T101047_L2A",
        "sentinel_scene_datetime": "2026-08-15T10:16:35.791000Z",
        "sentinel_ndvi_median": 0.6657,
        "sentinel_ndvi_p10": 0.6163,
        "sentinel_ndvi_p90": 0.6997,
        "sentinel_ndvi_spread_p90_p10": 0.0834,
        "sentinel_ndmi_median": 0.0907,
        "sentinel_valid_fraction": 1.0,
        "elevation_m_bpv": 338.83,
        "slope_deg": 5.52,
        "dominant_aspect_deg": 164.2,
        "aspect_coherence": 0.954,
        "tpi_300m_m": -7.97,
        "tpi_900m_m": -20.48,
        "twi": 6.84,
        "wetness_score": 58.97,
        "drying_score": 36.36,
        "cold_pool_score": 81.01,
        "candidate_rank": 7,
        "display_label": "L7",
        "id": "NH-OPEN-V3-L07",
        "name": "Nízká poloha · varianta 7",
        "class": "open_land_target_candidate_v3",
        "screening_version": 3,
        "center_lat": 51.024415,
        "center_lon": 14.43482,
        "distance_rule": ">=260 m from every v2 candidate center",
        "review_label": "L7",
        "review_version": "visual-review-v3.1",
        "reviewed_at_local": "2026-08-20T13:00:00+02:00",
        "experimental_use": "stable_open_land_network"
      },
      "geometry": {
        "type": "Polygon",
        "coordinates": [
          [
            [
              14.4343939,
              51.0240609
            ],
            [
              14.4353823,
              51.0241465
            ],
            [
              14.4352465,
              51.0247699
            ],
            [
              14.4342581,
              51.0246843
            ],
            [
              14.4343939,
              51.0240609
            ]
          ]
        ]
      }
    },
    {
      "type": "Feature",
      "properties": {
        "selection_role": "south_facing_slope",
        "selection_score": 0.8992,
        "status": "approved_after_visual_check",
        "worldcover_core_grassland_fraction": 1.0,
        "worldcover_sample_grassland_fraction": 1.0,
        "worldcover_guard_grassland_fraction": 1.0,
        "sample_square_m": 70.0,
        "guard_square_m": 170.0,
        "sentinel_scene_id": "S2C_T33UVS_20260815T101047_L2A",
        "sentinel_scene_datetime": "2026-08-15T10:16:35.791000Z",
        "sentinel_ndvi_median": 0.6361,
        "sentinel_ndvi_p10": 0.5938,
        "sentinel_ndvi_p90": 0.6833,
        "sentinel_ndvi_spread_p90_p10": 0.0895,
        "sentinel_ndmi_median": 0.0603,
        "sentinel_valid_fraction": 1.0,
        "elevation_m_bpv": 387.89,
        "slope_deg": 7.02,
        "dominant_aspect_deg": 186.8,
        "aspect_coherence": 0.982,
        "tpi_300m_m": 7.73,
        "tpi_900m_m": 14.41,
        "twi": 4.99,
        "wetness_score": 25.13,
        "drying_score": 54.91,
        "cold_pool_score": 42.24,
        "candidate_rank": 6,
        "display_label": "S6",
        "id": "NH-OPEN-V3-S06",
        "name": "Jižní svah · varianta 6",
        "class": "open_land_target_candidate_v3",
        "screening_version": 3,
        "center_lat": 51.008711,
        "center_lon": 14.433638,
        "distance_rule": ">=260 m from every v2 candidate center",
        "review_label": "S6",
        "review_version": "visual-review-v3.1",
        "reviewed_at_local": "2026-08-20T13:00:00+02:00",
        "experimental_use": "stable_open_land_network"
      },
      "geometry": {
        "type": "Polygon",
        "coordinates": [
          [
            [
              14.4332118,
              51.0083561
            ],
            [
              14.4341999,
              51.0084417
            ],
            [
              14.4340642,
              51.009065
            ],
            [
              14.4330761,
              51.0089794
            ],
            [
              14.4332118,
              51.0083561
            ]
          ]
        ]
      }
    },
    {
      "type": "Feature",
      "properties": {
        "selection_role": "south_facing_slope",
        "selection_score": 0.8008,
        "status": "approved_after_visual_check",
        "worldcover_core_grassland_fraction": 1.0,
        "worldcover_sample_grassland_fraction": 1.0,
        "worldcover_guard_grassland_fraction": 0.981,
        "sample_square_m": 70.0,
        "guard_square_m": 170.0,
        "sentinel_scene_id": "S2C_T33UVS_20260815T101047_L2A",
        "sentinel_scene_datetime": "2026-08-15T10:16:35.791000Z",
        "sentinel_ndvi_median": 0.6825,
        "sentinel_ndvi_p10": 0.6599,
        "sentinel_ndvi_p90": 0.7498,
        "sentinel_ndvi_spread_p90_p10": 0.0899,
        "sentinel_ndmi_median": 0.1115,
        "sentinel_valid_fraction": 1.0,
        "elevation_m_bpv": 328.97,
        "slope_deg": 8.43,
        "dominant_aspect_deg": 202.2,
        "aspect_coherence": 0.997,
        "tpi_300m_m": -6.97,
        "tpi_900m_m": -8.56,
        "twi": 6.64,
        "wetness_score": 56.04,
        "drying_score": 41.49,
        "cold_pool_score": 69.27,
        "candidate_rank": 7,
        "display_label": "S7",
        "id": "NH-OPEN-V3-S07",
        "name": "Jižní svah · varianta 7",
        "class": "open_land_target_candidate_v3",
        "screening_version": 3,
        "center_lat": 51.032601,
        "center_lon": 14.45814,
        "distance_rule": ">=260 m from every v2 candidate center",
        "review_label": "S7",
        "review_version": "visual-review-v3.1",
        "reviewed_at_local": "2026-08-20T13:00:00+02:00",
        "experimental_use": "stable_open_land_network"
      },
      "geometry": {
        "type": "Polygon",
        "coordinates": [
          [
            [
              14.4577137,
              51.0322466
            ],
            [
              14.4587022,
              51.032332
            ],
            [
              14.4585668,
              51.0329554
            ],
            [
              14.4575782,
              51.03287
            ],
            [
              14.4577137,
              51.0322466
            ]
          ]
        ]
      }
    },
    {
      "type": "Feature",
      "properties": {
        "selection_role": "high_twi",
        "selection_score": 0.9777,
        "status": "approved_after_visual_check",
        "worldcover_core_grassland_fraction": 1.0,
        "worldcover_sample_grassland_fraction": 1.0,
        "worldcover_guard_grassland_fraction": 0.986,
        "sample_square_m": 70.0,
        "guard_square_m": 170.0,
        "sentinel_scene_id": "S2C_T33UVS_20260815T101047_L2A",
        "sentinel_scene_datetime": "2026-08-15T10:16:35.791000Z",
        "sentinel_ndvi_median": 0.8319,
        "sentinel_ndvi_p10": 0.7992,
        "sentinel_ndvi_p90": 0.8738,
        "sentinel_ndvi_spread_p90_p10": 0.0746,
        "sentinel_ndmi_median": 0.2561,
        "sentinel_valid_fraction": 1.0,
        "elevation_m_bpv": 355.95,
        "slope_deg": 3.88,
        "dominant_aspect_deg": 43.7,
        "aspect_coherence": 0.497,
        "tpi_300m_m": -6.59,
        "tpi_900m_m": -3.43,
        "twi": 7.68,
        "wetness_score": 61.77,
        "drying_score": 27.16,
        "cold_pool_score": 71.59,
        "candidate_rank": 8,
        "display_label": "T+8",
        "id": "NH-OPEN-V3-TP08",
        "name": "Vysoké TWI – záloha · varianta 8",
        "class": "open_land_target_candidate_v3",
        "screening_version": 3,
        "center_lat": 51.009832,
        "center_lon": 14.441877,
        "distance_rule": ">=260 m from every v2 candidate center",
        "review_label": "T+8",
        "review_version": "visual-review-v3.1",
        "reviewed_at_local": "2026-08-20T13:00:00+02:00",
        "experimental_use": "stable_open_land_network"
      },
      "geometry": {
        "type": "Polygon",
        "coordinates": [
          [
            [
              14.4414511,
              51.009478
            ],
            [
              14.4424391,
              51.0095635
            ],
            [
              14.4423035,
              51.0101869
            ],
            [
              14.4413154,
              51.0101013
            ],
            [
              14.4414511,
              51.009478
            ]
          ]
        ]
      }
    },
    {
      "type": "Feature",
      "properties": {
        "selection_role": "north_facing_slope",
        "selection_score": 0.9059,
        "status": "approved_after_visual_check",
        "worldcover_core_grassland_fraction": 1.0,
        "worldcover_sample_grassland_fraction": 1.0,
        "worldcover_guard_grassland_fraction": 1.0,
        "sample_square_m": 70.0,
        "guard_square_m": 170.0,
        "sentinel_scene_id": "S2C_T33UVS_20260815T101047_L2A",
        "sentinel_scene_datetime": "2026-08-15T10:16:35.791000Z",
        "sentinel_ndvi_median": 0.7984,
        "sentinel_ndvi_p10": 0.7298,
        "sentinel_ndvi_p90": 0.8587,
        "sentinel_ndvi_spread_p90_p10": 0.1289,
        "sentinel_ndmi_median": 0.225,
        "sentinel_valid_fraction": 1.0,
        "elevation_m_bpv": 368.27,
        "slope_deg": 7.43,
        "dominant_aspect_deg": 17.5,
        "aspect_coherence": 0.969,
        "tpi_300m_m": -1.71,
        "tpi_900m_m": -5.69,
        "twi": 6.48,
        "wetness_score": 47.39,
        "drying_score": 39.1,
        "cold_pool_score": 59.48,
        "candidate_rank": 4,
        "display_label": "N4",
        "id": "NH-OPEN-V4-N04",
        "name": "Severní svah · varianta 4",
        "class": "open_land_north_candidate_v4",
        "screening_version": 4,
        "center_lat": 51.013436,
        "center_lon": 14.434263,
        "distance_rule": ">=260 m from every v2/v3 reviewed candidate center",
        "review_label": "N4",
        "review_version": "visual-review-v4.1",
        "reviewed_at_local": "2026-08-20T14:13:00+02:00",
        "experimental_use": "stable_open_land_network"
      },
      "geometry": {
        "type": "Polygon",
        "coordinates": [
          [
            [
              14.4338365,
              51.0130819
            ],
            [
              14.4348246,
              51.0131675
            ],
            [
              14.4346889,
              51.0137908
            ],
            [
              14.4337007,
              51.0137052
            ],
            [
              14.4338365,
              51.0130819
            ]
          ]
        ]
      }
    },
    {
      "type": "Feature",
      "properties": {
        "selection_role": "north_facing_slope",
        "selection_score": 0.9052,
        "status": "approved_after_visual_check",
        "worldcover_core_grassland_fraction": 1.0,
        "worldcover_sample_grassland_fraction": 1.0,
        "worldcover_guard_grassland_fraction": 0.993,
        "sample_square_m": 70.0,
        "guard_square_m": 170.0,
        "sentinel_scene_id": "S2C_T33UVS_20260815T101047_L2A",
        "sentinel_scene_datetime": "2026-08-15T10:16:35.791000Z",
        "sentinel_ndvi_median": 0.7688,
        "sentinel_ndvi_p10": 0.7288,
        "sentinel_ndvi_p90": 0.8076,
        "sentinel_ndvi_spread_p90_p10": 0.0788,
        "sentinel_ndmi_median": 0.2032,
        "sentinel_valid_fraction": 1.0,
        "elevation_m_bpv": 394.71,
        "slope_deg": 8.28,
        "dominant_aspect_deg": 22.5,
        "aspect_coherence": 0.994,
        "tpi_300m_m": 3.78,
        "tpi_900m_m": 13.14,
        "twi": 5.96,
        "wetness_score": 36.05,
        "drying_score": 45.6,
        "cold_pool_score": 39.87,
        "candidate_rank": 5,
        "display_label": "N5",
        "id": "NH-OPEN-V4-N05",
        "name": "Severní svah · varianta 5",
        "class": "open_land_north_candidate_v4",
        "screening_version": 4,
        "center_lat": 51.013255,
        "center_lon": 14.429557,
        "distance_rule": ">=260 m from every v2/v3 reviewed candidate center",
        "review_label": "N5",
        "review_version": "visual-review-v4.1",
        "reviewed_at_local": "2026-08-20T14:13:00+02:00",
        "experimental_use": "stable_open_land_network"
      },
      "geometry": {
        "type": "Polygon",
        "coordinates": [
          [
            [
              14.4291305,
              51.0129008
            ],
            [
              14.4301186,
              51.0129864
            ],
            [
              14.4299828,
              51.0136098
            ],
            [
              14.4289947,
              51.0135241
            ],
            [
              14.4291305,
              51.0129008
            ]
          ]
        ]
      }
    },
    {
      "type": "Feature",
      "properties": {
        "selection_role": "north_facing_slope",
        "selection_score": 0.8182,
        "status": "approved_after_visual_check",
        "worldcover_core_grassland_fraction": 1.0,
        "worldcover_sample_grassland_fraction": 1.0,
        "worldcover_guard_grassland_fraction": 0.998,
        "sample_square_m": 70.0,
        "guard_square_m": 170.0,
        "sentinel_scene_id": "S2C_T33UVS_20260815T101047_L2A",
        "sentinel_scene_datetime": "2026-08-15T10:16:35.791000Z",
        "sentinel_ndvi_median": 0.7994,
        "sentinel_ndvi_p10": 0.7658,
        "sentinel_ndvi_p90": 0.8384,
        "sentinel_ndvi_spread_p90_p10": 0.0726,
        "sentinel_ndmi_median": 0.2433,
        "sentinel_valid_fraction": 1.0,
        "elevation_m_bpv": 403.11,
        "slope_deg": 7.81,
        "dominant_aspect_deg": 31.2,
        "aspect_coherence": 0.975,
        "tpi_300m_m": 6.56,
        "tpi_900m_m": 3.37,
        "twi": 5.33,
        "wetness_score": 31.07,
        "drying_score": 52.18,
        "cold_pool_score": 42.0,
        "candidate_rank": 6,
        "display_label": "N6",
        "id": "NH-OPEN-V4-N06",
        "name": "Severní svah · varianta 6",
        "class": "open_land_north_candidate_v4",
        "screening_version": 4,
        "center_lat": 51.004026,
        "center_lon": 14.418843,
        "distance_rule": ">=260 m from every v2/v3 reviewed candidate center",
        "review_label": "N6",
        "review_version": "visual-review-v4.1",
        "reviewed_at_local": "2026-08-20T14:13:00+02:00",
        "experimental_use": "stable_open_land_network"
      },
      "geometry": {
        "type": "Polygon",
        "coordinates": [
          [
            [
              14.4184168,
              51.0036711
            ],
            [
              14.4194047,
              51.0037568
            ],
            [
              14.4192688,
              51.0043802
            ],
            [
              14.4182808,
              51.0042944
            ],
            [
              14.4184168,
              51.0036711
            ]
          ]
        ]
      }
    }
  ]
}
