{
  "type": "FeatureCollection",
  "name": "nove-hrabeci-open-land-target-candidates-v3",
  "properties": {
    "status": "target_candidates_need_visual_check",
    "generated_at_local": "2026-08-20T12:49:30.349396+02:00",
    "target_roles": [
      "low_position",
      "south_facing_slope",
      "high_twi"
    ],
    "purpose": "Targeted replacements for experimental-network gaps after two manual satellite-review passes.",
    "selection_rules": {
      "core_square_m": 40.0,
      "sampling_square_m": 70.0,
      "guard_square_m": 170.0,
      "minimum_core_grassland_fraction": 1.0,
      "minimum_sample_grassland_fraction": 1.0,
      "minimum_guard_grassland_fraction": 0.98,
      "minimum_ndvi_median": 0.6,
      "minimum_ndvi_p10": 0.5,
      "maximum_ndvi_p90_p10_spread": 0.18,
      "minimum_sentinel_valid_fraction": 0.98,
      "minimum_distance_from_any_v2_candidate_m": 260.0,
      "south_aspect_max_error_deg": 35.0,
      "minimum_aspect_coherence": 0.75,
      "low_position_tpi900_max_m": -10.0,
      "high_twi_minimum": 6.5,
      "candidates_per_role_target": 5
    },
    "old_centers_excluded": 18,
    "note": "These are deliberately new locations, not recycled v2 candidates. Manual satellite approval remains mandatory."
  },
  "features": [
    {
      "type": "Feature",
      "properties": {
        "selection_role": "low_position",
        "selection_score": 0.938,
        "status": "candidate_needs_visual_check",
        "worldcover_core_grassland_fraction": 1.0,
        "worldcover_sample_grassland_fraction": 1.0,
        "worldcover_guard_grassland_fraction": 0.98,
        "sample_square_m": 70.0,
        "guard_square_m": 170.0,
        "sentinel_scene_id": "S2C_T33UVS_20260815T101047_L2A",
        "sentinel_scene_datetime": "2026-08-15T10:16:35.791000Z",
        "sentinel_ndvi_median": 0.7752,
        "sentinel_ndvi_p10": 0.7356,
        "sentinel_ndvi_p90": 0.814,
        "sentinel_ndvi_spread_p90_p10": 0.0784,
        "sentinel_ndmi_median": 0.1952,
        "sentinel_valid_fraction": 1.0,
        "elevation_m_bpv": 309.26,
        "slope_deg": 5.58,
        "dominant_aspect_deg": 73.3,
        "aspect_coherence": 0.917,
        "tpi_300m_m": -6.65,
        "tpi_900m_m": -22.59,
        "twi": 6.88,
        "wetness_score": 60.37,
        "drying_score": 34.25,
        "cold_pool_score": 82.48,
        "candidate_rank": 4,
        "display_label": "L4",
        "id": "NH-OPEN-V3-L04",
        "name": "Nízká poloha · varianta 4",
        "class": "open_land_target_candidate_v3",
        "screening_version": 3,
        "center_lat": 51.030822,
        "center_lon": 14.449105,
        "distance_rule": ">=260 m from every v2 candidate center"
      },
      "geometry": {
        "type": "Polygon",
        "coordinates": [
          [
            [
              14.4486782,
              51.0304678
            ],
            [
              14.4496667,
              51.0305533
            ],
            [
              14.4495311,
              51.0311766
            ],
            [
              14.4485426,
              51.0310911
            ],
            [
              14.4486782,
              51.0304678
            ]
          ]
        ]
      }
    },
    {
      "type": "Feature",
      "properties": {
        "selection_role": "low_position",
        "selection_score": 0.9176,
        "status": "candidate_needs_visual_check",
        "worldcover_core_grassland_fraction": 1.0,
        "worldcover_sample_grassland_fraction": 1.0,
        "worldcover_guard_grassland_fraction": 0.98,
        "sample_square_m": 70.0,
        "guard_square_m": 170.0,
        "sentinel_scene_id": "S2C_T33UVS_20260815T101047_L2A",
        "sentinel_scene_datetime": "2026-08-15T10:16:35.791000Z",
        "sentinel_ndvi_median": 0.7587,
        "sentinel_ndvi_p10": 0.7213,
        "sentinel_ndvi_p90": 0.7908,
        "sentinel_ndvi_spread_p90_p10": 0.0695,
        "sentinel_ndmi_median": 0.1806,
        "sentinel_valid_fraction": 1.0,
        "elevation_m_bpv": 321.43,
        "slope_deg": 5.92,
        "dominant_aspect_deg": 29.1,
        "aspect_coherence": 0.982,
        "tpi_300m_m": -4.18,
        "tpi_900m_m": -22.36,
        "twi": 8.12,
        "wetness_score": 67.58,
        "drying_score": 26.71,
        "cold_pool_score": 79.08,
        "candidate_rank": 5,
        "display_label": "L5",
        "id": "NH-OPEN-V3-L05",
        "name": "Nízká poloha · varianta 5",
        "class": "open_land_target_candidate_v3",
        "screening_version": 3,
        "center_lat": 51.024062,
        "center_lon": 14.452229,
        "distance_rule": ">=260 m from every v2 candidate center"
      },
      "geometry": {
        "type": "Polygon",
        "coordinates": [
          [
            [
              14.4518022,
              51.023708
            ],
            [
              14.4527906,
              51.0237935
            ],
            [
              14.4526551,
              51.0244168
            ],
            [
              14.4516667,
              51.0243314
            ],
            [
              14.4518022,
              51.023708
            ]
          ]
        ]
      }
    },
    {
      "type": "Feature",
      "properties": {
        "selection_role": "low_position",
        "selection_score": 0.8869,
        "status": "candidate_needs_visual_check",
        "worldcover_core_grassland_fraction": 1.0,
        "worldcover_sample_grassland_fraction": 1.0,
        "worldcover_guard_grassland_fraction": 0.98,
        "sample_square_m": 70.0,
        "guard_square_m": 170.0,
        "sentinel_scene_id": "S2C_T33UVS_20260815T101047_L2A",
        "sentinel_scene_datetime": "2026-08-15T10:16:35.791000Z",
        "sentinel_ndvi_median": 0.7215,
        "sentinel_ndvi_p10": 0.6822,
        "sentinel_ndvi_p90": 0.737,
        "sentinel_ndvi_spread_p90_p10": 0.0548,
        "sentinel_ndmi_median": 0.1475,
        "sentinel_valid_fraction": 1.0,
        "elevation_m_bpv": 314.03,
        "slope_deg": 5.59,
        "dominant_aspect_deg": 224.3,
        "aspect_coherence": 0.996,
        "tpi_300m_m": -7.23,
        "tpi_900m_m": -18.86,
        "twi": 7.84,
        "wetness_score": 67.38,
        "drying_score": 29.62,
        "cold_pool_score": 81.68,
        "candidate_rank": 6,
        "display_label": "L6",
        "id": "NH-OPEN-V3-L06",
        "name": "Nízká poloha · varianta 6",
        "class": "open_land_target_candidate_v3",
        "screening_version": 3,
        "center_lat": 51.032278,
        "center_lon": 14.454398,
        "distance_rule": ">=260 m from every v2 candidate center"
      },
      "geometry": {
        "type": "Polygon",
        "coordinates": [
          [
            [
              14.4539719,
              51.0319233
            ],
            [
              14.4549604,
              51.0320087
            ],
            [
              14.4548249,
              51.0326321
            ],
            [
              14.4538363,
              51.0325466
            ],
            [
              14.4539719,
              51.0319233
            ]
          ]
        ]
      }
    },
    {
      "type": "Feature",
      "properties": {
        "selection_role": "low_position",
        "selection_score": 0.8796,
        "status": "candidate_needs_visual_check",
        "worldcover_core_grassland_fraction": 1.0,
        "worldcover_sample_grassland_fraction": 1.0,
        "worldcover_guard_grassland_fraction": 0.986,
        "sample_square_m": 70.0,
        "guard_square_m": 170.0,
        "sentinel_scene_id": "S2C_T33UVS_20260815T101047_L2A",
        "sentinel_scene_datetime": "2026-08-15T10:16:35.791000Z",
        "sentinel_ndvi_median": 0.6657,
        "sentinel_ndvi_p10": 0.6163,
        "sentinel_ndvi_p90": 0.6997,
        "sentinel_ndvi_spread_p90_p10": 0.0834,
        "sentinel_ndmi_median": 0.0907,
        "sentinel_valid_fraction": 1.0,
        "elevation_m_bpv": 338.83,
        "slope_deg": 5.52,
        "dominant_aspect_deg": 164.2,
        "aspect_coherence": 0.954,
        "tpi_300m_m": -7.97,
        "tpi_900m_m": -20.48,
        "twi": 6.84,
        "wetness_score": 58.97,
        "drying_score": 36.36,
        "cold_pool_score": 81.01,
        "candidate_rank": 7,
        "display_label": "L7",
        "id": "NH-OPEN-V3-L07",
        "name": "Nízká poloha · varianta 7",
        "class": "open_land_target_candidate_v3",
        "screening_version": 3,
        "center_lat": 51.024415,
        "center_lon": 14.43482,
        "distance_rule": ">=260 m from every v2 candidate center"
      },
      "geometry": {
        "type": "Polygon",
        "coordinates": [
          [
            [
              14.4343939,
              51.0240609
            ],
            [
              14.4353823,
              51.0241465
            ],
            [
              14.4352465,
              51.0247699
            ],
            [
              14.4342581,
              51.0246843
            ],
            [
              14.4343939,
              51.0240609
            ]
          ]
        ]
      }
    },
    {
      "type": "Feature",
      "properties": {
        "selection_role": "low_position",
        "selection_score": 0.8654,
        "status": "candidate_needs_visual_check",
        "worldcover_core_grassland_fraction": 1.0,
        "worldcover_sample_grassland_fraction": 1.0,
        "worldcover_guard_grassland_fraction": 0.986,
        "sample_square_m": 70.0,
        "guard_square_m": 170.0,
        "sentinel_scene_id": "S2C_T33UVS_20260815T101047_L2A",
        "sentinel_scene_datetime": "2026-08-15T10:16:35.791000Z",
        "sentinel_ndvi_median": 0.7417,
        "sentinel_ndvi_p10": 0.6572,
        "sentinel_ndvi_p90": 0.7816,
        "sentinel_ndvi_spread_p90_p10": 0.1244,
        "sentinel_ndmi_median": 0.1753,
        "sentinel_valid_fraction": 1.0,
        "elevation_m_bpv": 358.97,
        "slope_deg": 4.12,
        "dominant_aspect_deg": 330.5,
        "aspect_coherence": 0.966,
        "tpi_300m_m": -11.25,
        "tpi_900m_m": -21.08,
        "twi": 6.59,
        "wetness_score": 60.13,
        "drying_score": 31.23,
        "cold_pool_score": 82.37,
        "candidate_rank": 8,
        "display_label": "L8",
        "id": "NH-OPEN-V3-L08",
        "name": "Nízká poloha · varianta 8",
        "class": "open_land_target_candidate_v3",
        "screening_version": 3,
        "center_lat": 51.010106,
        "center_lon": 14.4902,
        "distance_rule": ">=260 m from every v2 candidate center"
      },
      "geometry": {
        "type": "Polygon",
        "coordinates": [
          [
            [
              14.4897738,
              51.0097518
            ],
            [
              14.490762,
              51.0098369
            ],
            [
              14.490627,
              51.0104603
            ],
            [
              14.4896388,
              51.0103752
            ],
            [
              14.4897738,
              51.0097518
            ]
          ]
        ]
      }
    },
    {
      "type": "Feature",
      "properties": {
        "selection_role": "south_facing_slope",
        "selection_score": 0.9936,
        "status": "candidate_needs_visual_check",
        "worldcover_core_grassland_fraction": 1.0,
        "worldcover_sample_grassland_fraction": 1.0,
        "worldcover_guard_grassland_fraction": 1.0,
        "sample_square_m": 70.0,
        "guard_square_m": 170.0,
        "sentinel_scene_id": "S2C_T33UVS_20260815T101047_L2A",
        "sentinel_scene_datetime": "2026-08-15T10:16:35.791000Z",
        "sentinel_ndvi_median": 0.7313,
        "sentinel_ndvi_p10": 0.6652,
        "sentinel_ndvi_p90": 0.7991,
        "sentinel_ndvi_spread_p90_p10": 0.1339,
        "sentinel_ndmi_median": 0.147,
        "sentinel_valid_fraction": 1.0,
        "elevation_m_bpv": 383.89,
        "slope_deg": 7.24,
        "dominant_aspect_deg": 159.2,
        "aspect_coherence": 0.966,
        "tpi_300m_m": -1.17,
        "tpi_900m_m": 2.26,
        "twi": 5.99,
        "wetness_score": 43.65,
        "drying_score": 46.45,
        "cold_pool_score": 55.08,
        "candidate_rank": 4,
        "display_label": "S4",
        "id": "NH-OPEN-V3-S04",
        "name": "Jižní svah · varianta 4",
        "class": "open_land_target_candidate_v3",
        "screening_version": 3,
        "center_lat": 51.008046,
        "center_lon": 14.42911,
        "distance_rule": ">=260 m from every v2 candidate center"
      },
      "geometry": {
        "type": "Polygon",
        "coordinates": [
          [
            [
              14.4286836,
              51.0076914
            ],
            [
              14.4296716,
              51.0077771
            ],
            [
              14.4295358,
              51.0084004
            ],
            [
              14.4285478,
              51.0083147
            ],
            [
              14.4286836,
              51.0076914
            ]
          ]
        ]
      }
    },
    {
      "type": "Feature",
      "properties": {
        "selection_role": "south_facing_slope",
        "selection_score": 0.9402,
        "status": "candidate_needs_visual_check",
        "worldcover_core_grassland_fraction": 1.0,
        "worldcover_sample_grassland_fraction": 1.0,
        "worldcover_guard_grassland_fraction": 1.0,
        "sample_square_m": 70.0,
        "guard_square_m": 170.0,
        "sentinel_scene_id": "S2C_T33UVS_20260815T101047_L2A",
        "sentinel_scene_datetime": "2026-08-15T10:16:35.791000Z",
        "sentinel_ndvi_median": 0.7019,
        "sentinel_ndvi_p10": 0.6377,
        "sentinel_ndvi_p90": 0.7899,
        "sentinel_ndvi_spread_p90_p10": 0.1522,
        "sentinel_ndmi_median": 0.181,
        "sentinel_valid_fraction": 1.0,
        "elevation_m_bpv": 403.62,
        "slope_deg": 6.44,
        "dominant_aspect_deg": 192.1,
        "aspect_coherence": 0.992,
        "tpi_300m_m": -1.31,
        "tpi_900m_m": -0.4,
        "twi": 5.4,
        "wetness_score": 40.15,
        "drying_score": 49.19,
        "cold_pool_score": 56.31,
        "candidate_rank": 5,
        "display_label": "S5",
        "id": "NH-OPEN-V3-S05",
        "name": "Jižní svah · varianta 5",
        "class": "open_land_target_candidate_v3",
        "screening_version": 3,
        "center_lat": 51.003775,
        "center_lon": 14.385181,
        "distance_rule": ">=260 m from every v2 candidate center"
      },
      "geometry": {
        "type": "Polygon",
        "coordinates": [
          [
            [
              14.3847551,
              51.0034206
            ],
            [
              14.3857429,
              51.0035066
            ],
            [
              14.3856066,
              51.0041299
            ],
            [
              14.3846187,
              51.0040439
            ],
            [
              14.3847551,
              51.0034206
            ]
          ]
        ]
      }
    },
    {
      "type": "Feature",
      "properties": {
        "selection_role": "south_facing_slope",
        "selection_score": 0.8992,
        "status": "candidate_needs_visual_check",
        "worldcover_core_grassland_fraction": 1.0,
        "worldcover_sample_grassland_fraction": 1.0,
        "worldcover_guard_grassland_fraction": 1.0,
        "sample_square_m": 70.0,
        "guard_square_m": 170.0,
        "sentinel_scene_id": "S2C_T33UVS_20260815T101047_L2A",
        "sentinel_scene_datetime": "2026-08-15T10:16:35.791000Z",
        "sentinel_ndvi_median": 0.6361,
        "sentinel_ndvi_p10": 0.5938,
        "sentinel_ndvi_p90": 0.6833,
        "sentinel_ndvi_spread_p90_p10": 0.0895,
        "sentinel_ndmi_median": 0.0603,
        "sentinel_valid_fraction": 1.0,
        "elevation_m_bpv": 387.89,
        "slope_deg": 7.02,
        "dominant_aspect_deg": 186.8,
        "aspect_coherence": 0.982,
        "tpi_300m_m": 7.73,
        "tpi_900m_m": 14.41,
        "twi": 4.99,
        "wetness_score": 25.13,
        "drying_score": 54.91,
        "cold_pool_score": 42.24,
        "candidate_rank": 6,
        "display_label": "S6",
        "id": "NH-OPEN-V3-S06",
        "name": "Jižní svah · varianta 6",
        "class": "open_land_target_candidate_v3",
        "screening_version": 3,
        "center_lat": 51.008711,
        "center_lon": 14.433638,
        "distance_rule": ">=260 m from every v2 candidate center"
      },
      "geometry": {
        "type": "Polygon",
        "coordinates": [
          [
            [
              14.4332118,
              51.0083561
            ],
            [
              14.4341999,
              51.0084417
            ],
            [
              14.4340642,
              51.009065
            ],
            [
              14.4330761,
              51.0089794
            ],
            [
              14.4332118,
              51.0083561
            ]
          ]
        ]
      }
    },
    {
      "type": "Feature",
      "properties": {
        "selection_role": "south_facing_slope",
        "selection_score": 0.8008,
        "status": "candidate_needs_visual_check",
        "worldcover_core_grassland_fraction": 1.0,
        "worldcover_sample_grassland_fraction": 1.0,
        "worldcover_guard_grassland_fraction": 0.981,
        "sample_square_m": 70.0,
        "guard_square_m": 170.0,
        "sentinel_scene_id": "S2C_T33UVS_20260815T101047_L2A",
        "sentinel_scene_datetime": "2026-08-15T10:16:35.791000Z",
        "sentinel_ndvi_median": 0.6825,
        "sentinel_ndvi_p10": 0.6599,
        "sentinel_ndvi_p90": 0.7498,
        "sentinel_ndvi_spread_p90_p10": 0.0899,
        "sentinel_ndmi_median": 0.1115,
        "sentinel_valid_fraction": 1.0,
        "elevation_m_bpv": 328.97,
        "slope_deg": 8.43,
        "dominant_aspect_deg": 202.2,
        "aspect_coherence": 0.997,
        "tpi_300m_m": -6.97,
        "tpi_900m_m": -8.56,
        "twi": 6.64,
        "wetness_score": 56.04,
        "drying_score": 41.49,
        "cold_pool_score": 69.27,
        "candidate_rank": 7,
        "display_label": "S7",
        "id": "NH-OPEN-V3-S07",
        "name": "Jižní svah · varianta 7",
        "class": "open_land_target_candidate_v3",
        "screening_version": 3,
        "center_lat": 51.032601,
        "center_lon": 14.45814,
        "distance_rule": ">=260 m from every v2 candidate center"
      },
      "geometry": {
        "type": "Polygon",
        "coordinates": [
          [
            [
              14.4577137,
              51.0322466
            ],
            [
              14.4587022,
              51.032332
            ],
            [
              14.4585668,
              51.0329554
            ],
            [
              14.4575782,
              51.03287
            ],
            [
              14.4577137,
              51.0322466
            ]
          ]
        ]
      }
    },
    {
      "type": "Feature",
      "properties": {
        "selection_role": "south_facing_slope",
        "selection_score": 0.7519,
        "status": "candidate_needs_visual_check",
        "worldcover_core_grassland_fraction": 1.0,
        "worldcover_sample_grassland_fraction": 1.0,
        "worldcover_guard_grassland_fraction": 0.986,
        "sample_square_m": 70.0,
        "guard_square_m": 170.0,
        "sentinel_scene_id": "S2C_T33UVS_20260815T101047_L2A",
        "sentinel_scene_datetime": "2026-08-15T10:16:35.791000Z",
        "sentinel_ndvi_median": 0.7839,
        "sentinel_ndvi_p10": 0.7318,
        "sentinel_ndvi_p90": 0.8595,
        "sentinel_ndvi_spread_p90_p10": 0.1277,
        "sentinel_ndmi_median": 0.2163,
        "sentinel_valid_fraction": 1.0,
        "elevation_m_bpv": 390.69,
        "slope_deg": 4.95,
        "dominant_aspect_deg": 180.6,
        "aspect_coherence": 0.99,
        "tpi_300m_m": -4.19,
        "tpi_900m_m": -10.65,
        "twi": 5.84,
        "wetness_score": 46.94,
        "drying_score": 42.97,
        "cold_pool_score": 66.35,
        "candidate_rank": 8,
        "display_label": "S8",
        "id": "NH-OPEN-V3-S08",
        "name": "Jižní svah · varianta 8",
        "class": "open_land_target_candidate_v3",
        "screening_version": 3,
        "center_lat": 51.001181,
        "center_lon": 14.420038,
        "distance_rule": ">=260 m from every v2 candidate center"
      },
      "geometry": {
        "type": "Polygon",
        "coordinates": [
          [
            [
              14.419612,
              51.0008266
            ],
            [
              14.4205998,
              51.0009123
            ],
            [
              14.420464,
              51.0015357
            ],
            [
              14.4194761,
              51.0014499
            ],
            [
              14.419612,
              51.0008266
            ]
          ]
        ]
      }
    },
    {
      "type": "Feature",
      "properties": {
        "selection_role": "high_twi",
        "selection_score": 0.9971,
        "status": "candidate_needs_visual_check",
        "worldcover_core_grassland_fraction": 1.0,
        "worldcover_sample_grassland_fraction": 1.0,
        "worldcover_guard_grassland_fraction": 0.982,
        "sample_square_m": 70.0,
        "guard_square_m": 170.0,
        "sentinel_scene_id": "S2C_T33UVS_20260815T101047_L2A",
        "sentinel_scene_datetime": "2026-08-15T10:16:35.791000Z",
        "sentinel_ndvi_median": 0.7312,
        "sentinel_ndvi_p10": 0.691,
        "sentinel_ndvi_p90": 0.8067,
        "sentinel_ndvi_spread_p90_p10": 0.1157,
        "sentinel_ndmi_median": 0.2087,
        "sentinel_valid_fraction": 1.0,
        "elevation_m_bpv": 348.79,
        "slope_deg": 2.07,
        "dominant_aspect_deg": 210.7,
        "aspect_coherence": 0.286,
        "tpi_300m_m": -11.74,
        "tpi_900m_m": -18.59,
        "twi": 6.5,
        "wetness_score": 59.94,
        "drying_score": 30.58,
        "cold_pool_score": 88.08,
        "candidate_rank": 4,
        "display_label": "T+4",
        "id": "NH-OPEN-V3-TP04",
        "name": "Vysoké TWI – záloha · varianta 4",
        "class": "open_land_target_candidate_v3",
        "screening_version": 3,
        "center_lat": 51.009316,
        "center_lon": 14.482608,
        "distance_rule": ">=260 m from every v2 candidate center"
      },
      "geometry": {
        "type": "Polygon",
        "coordinates": [
          [
            [
              14.4821812,
              51.0089612
            ],
            [
              14.4831694,
              51.0090464
            ],
            [
              14.4830343,
              51.0096698
            ],
            [
              14.4820462,
              51.0095846
            ],
            [
              14.4821812,
              51.0089612
            ]
          ]
        ]
      }
    },
    {
      "type": "Feature",
      "properties": {
        "selection_role": "high_twi",
        "selection_score": 0.9922,
        "status": "candidate_needs_visual_check",
        "worldcover_core_grassland_fraction": 1.0,
        "worldcover_sample_grassland_fraction": 1.0,
        "worldcover_guard_grassland_fraction": 0.99,
        "sample_square_m": 70.0,
        "guard_square_m": 170.0,
        "sentinel_scene_id": "S2C_T33UVS_20260815T101047_L2A",
        "sentinel_scene_datetime": "2026-08-15T10:16:35.791000Z",
        "sentinel_ndvi_median": 0.854,
        "sentinel_ndvi_p10": 0.8147,
        "sentinel_ndvi_p90": 0.8728,
        "sentinel_ndvi_spread_p90_p10": 0.0581,
        "sentinel_ndmi_median": 0.308,
        "sentinel_valid_fraction": 1.0,
        "elevation_m_bpv": 321.57,
        "slope_deg": 4.64,
        "dominant_aspect_deg": 325.2,
        "aspect_coherence": 0.873,
        "tpi_300m_m": -9.35,
        "tpi_900m_m": -10.16,
        "twi": 6.63,
        "wetness_score": 57.11,
        "drying_score": 33.89,
        "cold_pool_score": 79.4,
        "candidate_rank": 5,
        "display_label": "T+5",
        "id": "NH-OPEN-V3-TP05",
        "name": "Vysoké TWI – záloha · varianta 5",
        "class": "open_land_target_candidate_v3",
        "screening_version": 3,
        "center_lat": 51.037907,
        "center_lon": 14.497053,
        "distance_rule": ">=260 m from every v2 candidate center"
      },
      "geometry": {
        "type": "Polygon",
        "coordinates": [
          [
            [
              14.4966263,
              51.0375523
            ],
            [
              14.4976151,
              51.0376374
            ],
            [
              14.4974801,
              51.0382608
            ],
            [
              14.4964914,
              51.0381757
            ],
            [
              14.4966263,
              51.0375523
            ]
          ]
        ]
      }
    },
    {
      "type": "Feature",
      "properties": {
        "selection_role": "high_twi",
        "selection_score": 0.9859,
        "status": "candidate_needs_visual_check",
        "worldcover_core_grassland_fraction": 1.0,
        "worldcover_sample_grassland_fraction": 1.0,
        "worldcover_guard_grassland_fraction": 0.981,
        "sample_square_m": 70.0,
        "guard_square_m": 170.0,
        "sentinel_scene_id": "S2C_T33UVS_20260815T101047_L2A",
        "sentinel_scene_datetime": "2026-08-15T10:16:35.791000Z",
        "sentinel_ndvi_median": 0.722,
        "sentinel_ndvi_p10": 0.6696,
        "sentinel_ndvi_p90": 0.7707,
        "sentinel_ndvi_spread_p90_p10": 0.1011,
        "sentinel_ndmi_median": 0.1667,
        "sentinel_valid_fraction": 1.0,
        "elevation_m_bpv": 340.75,
        "slope_deg": 3.32,
        "dominant_aspect_deg": 203.1,
        "aspect_coherence": 0.396,
        "tpi_300m_m": -9.6,
        "tpi_900m_m": -17.79,
        "twi": 6.74,
        "wetness_score": 59.95,
        "drying_score": 30.26,
        "cold_pool_score": 83.99,
        "candidate_rank": 6,
        "display_label": "T+6",
        "id": "NH-OPEN-V3-TP06",
        "name": "Vysoké TWI – záloha · varianta 6",
        "class": "open_land_target_candidate_v3",
        "screening_version": 3,
        "center_lat": 51.007892,
        "center_lon": 14.477669,
        "distance_rule": ">=260 m from every v2 candidate center"
      },
      "geometry": {
        "type": "Polygon",
        "coordinates": [
          [
            [
              14.4772421,
              51.0075374
            ],
            [
              14.4782302,
              51.0076226
            ],
            [
              14.4780951,
              51.008246
            ],
            [
              14.477107,
              51.0081608
            ],
            [
              14.4772421,
              51.0075374
            ]
          ]
        ]
      }
    },
    {
      "type": "Feature",
      "properties": {
        "selection_role": "high_twi",
        "selection_score": 0.9782,
        "status": "candidate_needs_visual_check",
        "worldcover_core_grassland_fraction": 1.0,
        "worldcover_sample_grassland_fraction": 1.0,
        "worldcover_guard_grassland_fraction": 0.984,
        "sample_square_m": 70.0,
        "guard_square_m": 170.0,
        "sentinel_scene_id": "S2C_T33UVS_20260815T101047_L2A",
        "sentinel_scene_datetime": "2026-08-15T10:16:35.791000Z",
        "sentinel_ndvi_median": 0.8101,
        "sentinel_ndvi_p10": 0.7232,
        "sentinel_ndvi_p90": 0.8531,
        "sentinel_ndvi_spread_p90_p10": 0.1299,
        "sentinel_ndmi_median": 0.2483,
        "sentinel_valid_fraction": 1.0,
        "elevation_m_bpv": 379.02,
        "slope_deg": 3.98,
        "dominant_aspect_deg": 136.3,
        "aspect_coherence": 0.513,
        "tpi_300m_m": -7.04,
        "tpi_900m_m": -11.4,
        "twi": 7.33,
        "wetness_score": 60.97,
        "drying_score": 29.55,
        "cold_pool_score": 73.61,
        "candidate_rank": 7,
        "display_label": "T+7",
        "id": "NH-OPEN-V3-TP07",
        "name": "Vysoké TWI – záloha · varianta 7",
        "class": "open_land_target_candidate_v3",
        "screening_version": 3,
        "center_lat": 51.005529,
        "center_lon": 14.423619,
        "distance_rule": ">=260 m from every v2 candidate center"
      },
      "geometry": {
        "type": "Polygon",
        "coordinates": [
          [
            [
              14.4231932,
              51.0051742
            ],
            [
              14.4241812,
              51.0052599
            ],
            [
              14.4240453,
              51.0058832
            ],
            [
              14.4230574,
              51.0057975
            ],
            [
              14.4231932,
              51.0051742
            ]
          ]
        ]
      }
    },
    {
      "type": "Feature",
      "properties": {
        "selection_role": "high_twi",
        "selection_score": 0.9777,
        "status": "candidate_needs_visual_check",
        "worldcover_core_grassland_fraction": 1.0,
        "worldcover_sample_grassland_fraction": 1.0,
        "worldcover_guard_grassland_fraction": 0.986,
        "sample_square_m": 70.0,
        "guard_square_m": 170.0,
        "sentinel_scene_id": "S2C_T33UVS_20260815T101047_L2A",
        "sentinel_scene_datetime": "2026-08-15T10:16:35.791000Z",
        "sentinel_ndvi_median": 0.8319,
        "sentinel_ndvi_p10": 0.7992,
        "sentinel_ndvi_p90": 0.8738,
        "sentinel_ndvi_spread_p90_p10": 0.0746,
        "sentinel_ndmi_median": 0.2561,
        "sentinel_valid_fraction": 1.0,
        "elevation_m_bpv": 355.95,
        "slope_deg": 3.88,
        "dominant_aspect_deg": 43.7,
        "aspect_coherence": 0.497,
        "tpi_300m_m": -6.59,
        "tpi_900m_m": -3.43,
        "twi": 7.68,
        "wetness_score": 61.77,
        "drying_score": 27.16,
        "cold_pool_score": 71.59,
        "candidate_rank": 8,
        "display_label": "T+8",
        "id": "NH-OPEN-V3-TP08",
        "name": "Vysoké TWI – záloha · varianta 8",
        "class": "open_land_target_candidate_v3",
        "screening_version": 3,
        "center_lat": 51.009832,
        "center_lon": 14.441877,
        "distance_rule": ">=260 m from every v2 candidate center"
      },
      "geometry": {
        "type": "Polygon",
        "coordinates": [
          [
            [
              14.4414511,
              51.009478
            ],
            [
              14.4424391,
              51.0095635
            ],
            [
              14.4423035,
              51.0101869
            ],
            [
              14.4413154,
              51.0101013
            ],
            [
              14.4414511,
              51.009478
            ]
          ]
        ]
      }
    }
  ]
}
