{
  "type": "FeatureCollection",
  "name": "nove-hrabeci-study-area",
  "features": [
    {
      "type": "Feature",
      "properties": {
        "id": "NH-STUDY",
        "name": "Nové Hraběcí – širší krajinná oblast",
        "purpose": "Sentinel-2 discovery and later landscape-zone analysis",
        "reference_point": [14.4398, 51.0162],
        "status": "study-area-only; landscape polygons will be drawn from satellite imagery"
      },
      "geometry": {
        "type": "Polygon",
        "coordinates": [[
          [14.38, 50.98],
          [14.50, 50.98],
          [14.50, 51.06],
          [14.38, 51.06],
          [14.38, 50.98]
        ]]
      }
    }
  ]
}
